ORBCOMM FM05 [-]        
1 25117U 97084F   23276.85774180  .00002804  00000+0  89949-3 0  9999
2 25117  45.0145 104.6818 0002053 344.6669  15.4118 14.41460923350689
ORBCOMM FM06 [+]        
1 25118U 97084G   23276.90350868  .00002852  00000+0  91537-3 0  9998
2 25118  45.0142 104.6173 0001320   9.0101  94.7479 14.41400135351602
ORBCOMM FM07 [-]        
1 25119U 97084H   23276.65686477  .00002612  00000+0  84291-3 0  9992
2 25119  45.0131 106.2275 0002584 325.6749  34.3934 14.41344509351563
ORBCOMM FM03 [-]        
1 25158U 98007B   23276.92087725  .00001652  00000+0  66372-3 0  9995
2 25158 107.9827 300.4332 0049797 254.8469 104.7157 14.31308479334911
ORBCOMM FM04 [+]        
1 25159U 98007C   23276.94945001  .00001585  00000+0  63666-3 0  9996
2 25159 107.9806 303.2818 0045291 252.9109 106.7065 14.31581767335086
ORBCOMM FM17 [-]        
1 25413U 98046A   23276.28716301  .00001508  00000+0  60427-3 0  9995
2 25413  44.9955 310.5487 0003366 295.4897  64.5601 14.32361926313784
ORBCOMM FM18 [-]        
1 25414U 98046B   23276.89418060  .00002733  00000+0  10024-2 0  9992
2 25414  44.9930 239.2270 0004661   6.6227 353.4681 14.34860696314760
ORBCOMM FM19 [+]        
1 25415U 98046C   23276.91233925  .00002556  00000+0  94305-3 0  9999
2 25415  44.9940 240.2804 0003924 351.8598  37.9542 14.34737704314734
